{
  "type": "FeatureCollection",
  "features": [
    {
      "type": "Feature",
      "properties": {
        "norad_id": 67112,
        "name": "STARLINK-35906",
        "group": "last-30-days",
        "lat": 41.551784235069086,
        "lon": -62.90202471354437,
        "alt_km": 341.28184182235236,
        "timestamp": "2025-12-27T16:33:28.976377+00:00",
        "meta_object_name": "STARLINK-35906",
        "meta_object_id": "2025-299L",
        "meta_epoch": "2025-12-27T12:00:02.000160",
        "meta_mean_motion": 15.7511366,
        "meta_eccentricity": 0.0001711,
        "meta_inclination": 42.999,
        "meta_ra_of_asc_node": 226.2216,
        "meta_arg_of_pericenter": 267.5958,
        "meta_mean_anomaly": 171.2482,
        "meta_ephemeris_type": 0,
        "meta_classification_type": "U",
        "meta_norad_cat_id": 67112,
        "meta_element_set_no": 999,
        "meta_rev_at_epoch": 307,
        "meta_bstar": -0.014318,
        "meta_mean_motion_dot": -0.01916812,
        "meta_mean_motion_ddot": 0,
        "tle_line1": "1 67112U 25299L   25361.50002315 -.01916812  00000+0 -14318-1 0  9994",
        "tle_line2": "2 67112  42.9990 226.2216 0001711 267.5958 171.2482 15.75113660  3075"
      },
      "geometry": {
        "type": "Point",
        "coordinates": [
          -62.90202471354437,
          41.551784235069086
        ]
      }
    },
    {
      "type": "Feature",
      "properties": {
        "norad_id": 67113,
        "name": "STARLINK-35789",
        "group": "last-30-days",
        "lat": 41.88333392853359,
        "lon": -60.70578105361998,
        "alt_km": 341.22750254325274,
        "timestamp": "2025-12-27T16:33:28.976389+00:00",
        "meta_object_name": "STARLINK-35789",
        "meta_object_id": "2025-299M",
        "meta_epoch": "2025-12-27T12:00:02.000160",
        "meta_mean_motion": 15.75130653,
        "meta_eccentricity": 0.0001754,
        "meta_inclination": 42.999,
        "meta_ra_of_asc_node": 226.2173,
        "meta_arg_of_pericenter": 268.0202,
        "meta_mean_anomaly": 172.4871,
        "meta_ephemeris_type": 0,
        "meta_classification_type": "U",
        "meta_norad_cat_id": 67113,
        "meta_element_set_no": 999,
        "meta_rev_at_epoch": 307,
        "meta_bstar": -0.014371,
        "meta_mean_motion_dot": -0.01924232,
        "meta_mean_motion_ddot": 0,
        "tle_line1": "1 67113U 25299M   25361.50002315 -.01924232  00000+0 -14371-1 0  9999",
        "tle_line2": "2 67113  42.9990 226.2173 0001754 268.0202 172.4871 15.75130653  3079"
      },
      "geometry": {
        "type": "Point",
        "coordinates": [
          -60.70578105361998,
          41.88333392853359
        ]
      }
    },
    {
      "type": "Feature",
      "properties": {
        "norad_id": 67114,
        "name": "STARLINK-36180",
        "group": "last-30-days",
        "lat": 42.20013880235062,
        "lon": -58.25530033968551,
        "alt_km": 341.1287915988896,
        "timestamp": "2025-12-27T16:33:28.976401+00:00",
        "meta_object_name": "STARLINK-36180",
        "meta_object_id": "2025-299N",
        "meta_epoch": "2025-12-27T12:00:02.000160",
        "meta_mean_motion": 15.75127438,
        "meta_eccentricity": 0.000167,
        "meta_inclination": 42.999,
        "meta_ra_of_asc_node": 226.2128,
        "meta_arg_of_pericenter": 266.3839,
        "meta_mean_anomaly": 175.9733,
        "meta_ephemeris_type": 0,
        "meta_classification_type": "U",
        "meta_norad_cat_id": 67114,
        "meta_element_set_no": 999,
        "meta_rev_at_epoch": 318,
        "meta_bstar": -0.014286,
        "meta_mean_motion_dot": -0.01914023,
        "meta_mean_motion_ddot": 0,
        "tle_line1": "1 67114U 25299N   25361.50002315 -.01914023  00000+0 -14286-1 0  9992",
        "tle_line2": "2 67114  42.9990 226.2128 0001670 266.3839 175.9733 15.75127438  3188"
      },
      "geometry": {
        "type": "Point",
        "coordinates": [
          -58.25530033968551,
          42.20013880235062
        ]
      }
    },
    {
      "type": "Feature",
      "properties": {
        "norad_id": 67115,
        "name": "STARLINK-35892",
        "group": "last-30-days",
        "lat": 42.44332478753407,
        "lon": -55.996963251471506,
        "alt_km": 341.0072183715647,
        "timestamp": "2025-12-27T16:33:28.976413+00:00",
        "meta_object_name": "STARLINK-35892",
        "meta_object_id": "2025-299P",
        "meta_epoch": "2025-12-27T12:00:02.000160",
        "meta_mean_motion": 15.75140672,
        "meta_eccentricity": 0.0001584,
        "meta_inclination": 42.9989,
        "meta_ra_of_asc_node": 226.2082,
        "meta_arg_of_pericenter": 263.9834,
        "meta_mean_anomaly": 180.0552,
        "meta_ephemeris_type": 0,
        "meta_classification_type": "U",
        "meta_norad_cat_id": 67115,
        "meta_element_set_no": 999,
        "meta_rev_at_epoch": 307,
        "meta_bstar": -0.014303,
        "meta_mean_motion_dot": -0.01916873,
        "meta_mean_motion_ddot": 0,
        "tle_line1": "1 67115U 25299P   25361.50002315 -.01916873  00000+0 -14303-1 0  9998",
        "tle_line2": "2 67115  42.9989 226.2082 0001584 263.9834 180.0552 15.75140672  3077"
      },
      "geometry": {
        "type": "Point",
        "coordinates": [
          -55.996963251471506,
          42.44332478753407
        ]
      }
    },
    {
      "type": "Feature",
      "properties": {
        "norad_id": 67116,
        "name": "STARLINK-35738",
        "group": "last-30-days",
        "lat": 42.662028071583244,
        "lon": -53.455330617460596,
        "alt_km": 341.06531550049203,
        "timestamp": "2025-12-27T16:33:28.976423+00:00",
        "meta_object_name": "STARLINK-35738",
        "meta_object_id": "2025-299Q",
        "meta_epoch": "2025-12-27T12:00:02.000160",
        "meta_mean_motion": 15.75135502,
        "meta_eccentricity": 0.0001714,
        "meta_inclination": 42.9989,
        "meta_ra_of_asc_node": 226.2034,
        "meta_arg_of_pericenter": 265.0082,
        "meta_mean_anomaly": 180.9185,
        "meta_ephemeris_type": 0,
        "meta_classification_type": "U",
        "meta_norad_cat_id": 67116,
        "meta_element_set_no": 999,
        "meta_rev_at_epoch": 307,
        "meta_bstar": -0.01423,
        "meta_mean_motion_dot": -0.01908123,
        "meta_mean_motion_ddot": 0,
        "tle_line1": "1 67116U 25299Q   25361.50002315 -.01908123  00000+0 -14230-1 0  9997",
        "tle_line2": "2 67116  42.9989 226.2034 0001714 265.0082 180.9185 15.75135502  3075"
      },
      "geometry": {
        "type": "Point",
        "coordinates": [
          -53.455330617460596,
          42.662028071583244
        ]
      }
    },
    {
      "type": "Feature",
      "properties": {
        "norad_id": 67117,
        "name": "STARLINK-35674",
        "group": "last-30-days",
        "lat": 42.815620888303606,
        "lon": -51.0596363383715,
        "alt_km": 341.04790167134615,
        "timestamp": "2025-12-27T16:33:28.976433+00:00",
        "meta_object_name": "STARLINK-35674",
        "meta_object_id": "2025-299R",
        "meta_epoch": "2025-12-27T12:00:02.000160",
        "meta_mean_motion": 15.75149409,
        "meta_eccentricity": 0.0001755,
        "meta_inclination": 42.9991,
        "meta_ra_of_asc_node": 226.1995,
        "meta_arg_of_pericenter": 264.7888,
        "meta_mean_anomaly": 182.8976,
        "meta_ephemeris_type": 0,
        "meta_classification_type": "U",
        "meta_norad_cat_id": 67117,
        "meta_element_set_no": 999,
        "meta_rev_at_epoch": 297,
        "meta_bstar": -0.014319,
        "meta_mean_motion_dot": -0.0191952,
        "meta_mean_motion_ddot": 0,
        "tle_line1": "1 67117U 25299R   25361.50002315 -.01919520  00000+0 -14319-1 0  9999",
        "tle_line2": "2 67117  42.9991 226.1995 0001755 264.7888 182.8976 15.75149409  2977"
      },
      "geometry": {
        "type": "Point",
        "coordinates": [
          -51.0596363383715,
          42.815620888303606
        ]
      }
    },
    {
      "type": "Feature",
      "properties": {
        "norad_id": 67118,
        "name": "STARLINK-35701",
        "group": "last-30-days",
        "lat": 42.919798206839864,
        "lon": -48.617370640679226,
        "alt_km": 340.93761053477647,
        "timestamp": "2025-12-27T16:33:28.976442+00:00",
        "meta_object_name": "STARLINK-35701",
        "meta_object_id": "2025-299S",
        "meta_epoch": "2025-12-27T12:00:02.000160",
        "meta_mean_motion": 15.75149578,
        "meta_eccentricity": 0.0001645,
        "meta_inclination": 42.999,
        "meta_ra_of_asc_node": 226.1945,
        "meta_arg_of_pericenter": 268.9164,
        "meta_mean_anomaly": 180.561,
        "meta_ephemeris_type": 0,
        "meta_classification_type": "U",
        "meta_norad_cat_id": 67118,
        "meta_element_set_no": 999,
        "meta_rev_at_epoch": 313,
        "meta_bstar": -0.014215,
        "meta_mean_motion_dot": -0.01907384,
        "meta_mean_motion_ddot": 0,
        "tle_line1": "1 67118U 25299S   25361.50002315 -.01907384  00000+0 -14215-1 0  9990",
        "tle_line2": "2 67118  42.9990 226.1945 0001645 268.9164 180.5610 15.75149578  3139"
      },
      "geometry": {
        "type": "Point",
        "coordinates": [
          -48.617370640679226,
          42.919798206839864
        ]
      }
    }
  ]
}